GHGSAT-C1               
1 46278U 20061G   26194.25620377  .00027208  00000+0  19778-3 0  9993
2 46278  97.2099 280.2724 0000918 176.1427 183.9845 15.73337575327574
GHGSAT-C2               
1 47509U 21006DA  26193.65471571  .00003810  00000+0  10374-3 0  9990
2 47509  97.2138 240.4847 0006792  82.3949 277.8068 15.38088939303766
GHGSAT-C3               
1 52737U 22057F   26194.32280139  .00003860  00000+0  11741-3 0  9993
2 52737  97.6623 340.9681 0006464  41.0687 319.1041 15.34664971229543
GHGSAT-C5               
1 52744U 22057N   26194.23171105  .00003789  00000+0  11536-3 0  9995
2 52744  97.6710 342.4776 0007167  38.3510 321.8240 15.34640714229534
GHGSAT-C4               
1 52746U 22057Q   26194.27830689  .00003838  00000+0  11681-3 0  9996
2 52746  97.6550 339.7268 0006342  25.7380 334.4177 15.34651383229546
GHGSAT-C8               
1 56186U 23054J   26194.31504911  .00009731  00000+0  15352-3 0  9994
2 56186  97.2969 103.9945 0003180   9.4007 350.7306 15.53733202182492
GHGSAT-C6               
1 56204U 23054AC  26194.28123494  .00010116  00000+0  15965-3 0  9993
2 56204  97.3032 104.6617 0003669 317.3013  42.7955 15.53709370182508
GHGSAT-C7               
1 56209U 23054AH  26194.27580852  .00006854  00000+0  12217-3 0  9993
2 56209  97.2980 102.9849 0005129 313.3793  46.7031 15.50418535182434
GHGSAT-C12              
1 64529U 25135B   26194.31121019  .00001881  00000+0  89377-4 0  9997
2 64529  97.4770 308.8914 0006446  86.4008 273.7964 15.20438254 58792
GHGSAT-C13              
1 64548U 25135W   26194.30012445  .00003070  00000+0  14003-3 0  9994
2 64548  97.4800 309.4921 0001970  69.2939 290.8507 15.21390500 58820
