{"fetched_at":"2026-07-13T18:16:52.917Z","source":"https://celestrak.org/NORAD/elements/gp.php?NAME=GHGSAT&FORMAT=JSON","constellation":"ghgsat","records":[{"OBJECT_NAME":"GHGSAT-C1","OBJECT_ID":"2020-061G","EPOCH":"2026-07-13T06:08:56.005728","CLASSIFICATION_TYPE":"U","MEAN_MOTION":15.73337575,"ECCENTRICITY":0.00009184,"INCLINATION":97.2099,"RA_OF_ASC_NODE":280.2724,"ARG_OF_PERICENTER":176.1427,"MEAN_ANOMALY":183.9845,"EPHEMERIS_TYPE":0,"NORAD_CAT_ID":46278,"ELEMENT_SET_NO":999,"REV_AT_EPOCH":32757,"BSTAR":0.0001977827,"MEAN_MOTION_DOT":0.00027208,"MEAN_MOTION_DDOT":0},{"OBJECT_NAME":"GHGSAT-C2","OBJECT_ID":"2021-006DA","EPOCH":"2026-07-12T15:42:47.437344","CLASSIFICATION_TYPE":"U","MEAN_MOTION":15.38088939,"ECCENTRICITY":0.00067921,"INCLINATION":97.2138,"RA_OF_ASC_NODE":240.4847,"ARG_OF_PERICENTER":82.3949,"MEAN_ANOMALY":277.8068,"EPHEMERIS_TYPE":0,"NORAD_CAT_ID":47509,"ELEMENT_SET_NO":999,"REV_AT_EPOCH":30376,"BSTAR":0.00010373609,"MEAN_MOTION_DOT":0.0000381,"MEAN_MOTION_DDOT":0},{"OBJECT_NAME":"GHGSAT-C3","OBJECT_ID":"2022-057F","EPOCH":"2026-07-13T07:44:50.040096","CLASSIFICATION_TYPE":"U","MEAN_MOTION":15.34664971,"ECCENTRICITY":0.00064649,"INCLINATION":97.6623,"RA_OF_ASC_NODE":340.9681,"ARG_OF_PERICENTER":41.0687,"MEAN_ANOMALY":319.1041,"EPHEMERIS_TYPE":0,"NORAD_CAT_ID":52737,"ELEMENT_SET_NO":999,"REV_AT_EPOCH":22954,"BSTAR":0.0001174077,"MEAN_MOTION_DOT":0.0000386,"MEAN_MOTION_DDOT":0},{"OBJECT_NAME":"GHGSAT-C5","OBJECT_ID":"2022-057N","EPOCH":"2026-07-13T05:33:39.834720","CLASSIFICATION_TYPE":"U","MEAN_MOTION":15.34640714,"ECCENTRICITY":0.00071679,"INCLINATION":97.671,"RA_OF_ASC_NODE":342.4776,"ARG_OF_PERICENTER":38.351,"MEAN_ANOMALY":321.824,"EPHEMERIS_TYPE":0,"NORAD_CAT_ID":52744,"ELEMENT_SET_NO":999,"REV_AT_EPOCH":22953,"BSTAR":0.00011536411,"MEAN_MOTION_DOT":0.00003789,"MEAN_MOTION_DDOT":0},{"OBJECT_NAME":"GHGSAT-C4","OBJECT_ID":"2022-057Q","EPOCH":"2026-07-13T06:40:45.715296","CLASSIFICATION_TYPE":"U","MEAN_MOTION":15.34651383,"ECCENTRICITY":0.00063429,"INCLINATION":97.655,"RA_OF_ASC_NODE":339.7268,"ARG_OF_PERICENTER":25.738,"MEAN_ANOMALY":334.4177,"EPHEMERIS_TYPE":0,"NORAD_CAT_ID":52746,"ELEMENT_SET_NO":999,"REV_AT_EPOCH":22954,"BSTAR":0.00011680806,"MEAN_MOTION_DOT":0.00003838,"MEAN_MOTION_DDOT":0},{"OBJECT_NAME":"GHGSAT-C8","OBJECT_ID":"2023-054J","EPOCH":"2026-07-13T07:33:40.243104","CLASSIFICATION_TYPE":"U","MEAN_MOTION":15.53733202,"ECCENTRICITY":0.00031809,"INCLINATION":97.2969,"RA_OF_ASC_NODE":103.9945,"ARG_OF_PERICENTER":9.4007,"MEAN_ANOMALY":350.7306,"EPHEMERIS_TYPE":0,"NORAD_CAT_ID":56186,"ELEMENT_SET_NO":999,"REV_AT_EPOCH":18249,"BSTAR":0.0001535182,"MEAN_MOTION_DOT":0.00009731,"MEAN_MOTION_DDOT":0},{"OBJECT_NAME":"GHGSAT-C6","OBJECT_ID":"2023-054AC","EPOCH":"2026-07-13T06:44:58.698816","CLASSIFICATION_TYPE":"U","MEAN_MOTION":15.5370937,"ECCENTRICITY":0.00036692,"INCLINATION":97.3032,"RA_OF_ASC_NODE":104.6617,"ARG_OF_PERICENTER":317.3013,"MEAN_ANOMALY":42.7955,"EPHEMERIS_TYPE":0,"NORAD_CAT_ID":56204,"ELEMENT_SET_NO":999,"REV_AT_EPOCH":18250,"BSTAR":0.00015965328,"MEAN_MOTION_DOT":0.00010116,"MEAN_MOTION_DDOT":0},{"OBJECT_NAME":"GHGSAT-C7","OBJECT_ID":"2023-054AH","EPOCH":"2026-07-13T06:37:09.856128","CLASSIFICATION_TYPE":"U","MEAN_MOTION":15.50418535,"ECCENTRICITY":0.00051293,"INCLINATION":97.298,"RA_OF_ASC_NODE":102.9849,"ARG_OF_PERICENTER":313.3793,"MEAN_ANOMALY":46.7031,"EPHEMERIS_TYPE":0,"NORAD_CAT_ID":56209,"ELEMENT_SET_NO":999,"REV_AT_EPOCH":18243,"BSTAR":0.0001221654,"MEAN_MOTION_DOT":0.00006854,"MEAN_MOTION_DDOT":0},{"OBJECT_NAME":"GHGSAT-C12","OBJECT_ID":"2025-135B","EPOCH":"2026-07-13T07:28:08.560416","CLASSIFICATION_TYPE":"U","MEAN_MOTION":15.20438254,"ECCENTRICITY":0.00064464,"INCLINATION":97.477,"RA_OF_ASC_NODE":308.8914,"ARG_OF_PERICENTER":86.4008,"MEAN_ANOMALY":273.7964,"EPHEMERIS_TYPE":0,"NORAD_CAT_ID":64529,"ELEMENT_SET_NO":999,"REV_AT_EPOCH":5879,"BSTAR":0.000089377179,"MEAN_MOTION_DOT":0.00001881,"MEAN_MOTION_DDOT":0},{"OBJECT_NAME":"GHGSAT-C13","OBJECT_ID":"2025-135W","EPOCH":"2026-07-13T07:12:10.752480","CLASSIFICATION_TYPE":"U","MEAN_MOTION":15.213905,"ECCENTRICITY":0.00019703,"INCLINATION":97.48,"RA_OF_ASC_NODE":309.4921,"ARG_OF_PERICENTER":69.2939,"MEAN_ANOMALY":290.8507,"EPHEMERIS_TYPE":0,"NORAD_CAT_ID":64548,"ELEMENT_SET_NO":999,"REV_AT_EPOCH":5882,"BSTAR":0.00014002975,"MEAN_MOTION_DOT":0.0000307,"MEAN_MOTION_DDOT":0}]}
